NORAD_CAT_ID,OBJECT_NAME,OBJECT_TYPE,EPOCH,MEAN_MOTION,ECCENTRICITY,INCLINATION,RA_OF_ASC_NODE,ARG_OF_PERICENTER,MEAN_ANOMALY,BSTAR,MEAN_MOTION_DOT,MEAN_MOTION_DDOT,TLE_LINE0,TLE_LINE1,TLE_LINE2,SEMIMAJOR_AXIS,PERIOD,APOGEE,PERIGEE,DECAYED
53604.0,STARLINK-4690,PAYLOAD,2022-09-11 22:00:00,15.73327535,0.0001539,53.2169,214.8058,93.7612,282.0871,-0.0020076,-0.00274876,0.0,0 STARLINK-4690,1 53604U 22104S   22254.91667824 -.00274876  00000-0 -20076-2 0  9998,2 53604  53.2169 214.8058 0001539  93.7612 282.0871 15.73327535  1303,6727.531999999997,91.526,350.432,348.361,0.0
53604.0,STARLINK-4690,PAYLOAD,2022-09-12 04:00:00,15.73261544,0.0001262999999999,53.2167,213.5721,85.4513,267.1619,-0.00038099,-0.00053888,0.0,0 STARLINK-4690,1 53604U 22104S   22255.16667824 -.00053888  00000-0 -38099-3 0  9999,2 53604  53.2167 213.5721 0001263  85.4513 267.1619 15.73261544  2397,6727.72,91.53,350.434,348.735,0.0
53604.0,STARLINK-4690,PAYLOAD,2022-09-12 12:00:00,15.73268253,0.0001137,53.2167,211.9222,83.1069,358.4844,-0.00045266,-0.00063851,0.0,0 STARLINK-4690,1 53604U 22104S   22255.50001157 -.00063851  00000-0 -45266-3 0  9993,2 53604  53.2167 211.9222 0001137  83.1069 358.4844 15.73268253  1304,6727.701,91.529,350.331,348.801,0.0
53604.0,STARLINK-4690,PAYLOAD,2022-09-12 20:00:01,15.73210099,0.0001219,53.2169,210.2711,98.2142,72.4293,0.00040286,0.00056323,0.0,0 STARLINK-4690,1 53604U 22104S   22255.83335648  .00056323  00000-0  40286-3 0  9995,2 53604  53.2169 210.2711 0001219  98.2142  72.4293 15.73210099  2500,6727.866,91.533,350.552,348.911,0.0
53604.0,STARLINK-4690,PAYLOAD,2022-09-12 22:00:00,15.73256936,0.0001190999999999,53.217,209.8592,98.7432,184.0601,-0.00021043,-0.00030118,0.0,0 STARLINK-4690,1 53604U 22104S   22255.91667824 -.00030118  00000-0 -21043-3 0  9994,2 53604  53.2170 209.8592 0001191  98.7432 184.0601 15.73256936  1309,6727.733,91.53,350.399,348.797,0.0
53604.0,STARLINK-4690,PAYLOAD,2022-09-13 06:00:00,15.73197794,0.0001042,53.2167,208.2118,84.7121,287.062,-0.00039468,-0.00055638,0.0,0 STARLINK-4690,1 53604U 22104S   22256.25001157 -.00055638  00000-0 -39468-3 0  9997,2 53604  53.2167 208.2118 0001042  84.7121 287.0620 15.73197794  2567,6727.901,91.533,350.468,349.065,0.0
53604.0,STARLINK-4690,PAYLOAD,2022-09-13 14:00:01,15.73146957,0.0001012,53.2165,206.5607,96.1297,4.5518,-1.5547000000000002e-05,-2.795e-05,0.0,0 STARLINK-4690,1 53604U 22104S   22256.58334491 -.00002795  00000-0 -15547-4 0  9992,2 53604  53.2165 206.5607 0001012  96.1297   4.5518 15.73146957  1301,6728.045999999999,91.536,350.592,349.231,0.0
53604.0,STARLINK-4690,PAYLOAD,2022-09-13 20:00:01,15.73151356,0.0001213,53.2165,205.3215,102.5775,334.7505,-5.4639e-05,-8.264e-05,0.0,0 STARLINK-4690,1 53604U 22104S   22256.83334491 -.00008264  00000-0 -54639-4 0  9992,2 53604  53.2165 205.3215 0001213 102.5775 334.7505 15.73151356  2662,6728.034000000002,91.536,350.715,349.083,0.0
53604.0,STARLINK-4690,PAYLOAD,2022-09-13 22:00:00,15.73150464,0.0001264,53.2166,204.9112,103.0283,86.5261,8.0132e-05,0.00010617,0.0,0 STARLINK-4690,1 53604U 22104S   22256.91667824  .00010617  00000-0  80132-4 0  9990,2 53604  53.2166 204.9112 0001264 103.0283  86.5261 15.73150464  1300,6728.036,91.536,350.75199999999984,349.051,0.0
53604.0,STARLINK-4690,PAYLOAD,2022-09-14 14:00:01,15.73205736,0.0001293,53.2166,201.6129,99.2075,268.0917,0.00024038,0.00033257,0.0,0 STARLINK-4690,1 53604U 22104S   22257.58334491  .00033257  00000-0  24038-3 0  9992,2 53604  53.2166 201.6129 0001293  99.2075 268.0917 15.73205736  2779,6727.879,91.533,350.61400000000015,348.874,0.0
53604.0,STARLINK-4690,PAYLOAD,2022-09-14 22:00:00,15.73231548,0.0001467,53.2165,199.9633,101.5107,354.7302,-0.00012911,-0.00018724,0.0,0 STARLINK-4690,1 53604U 22104S   22257.91667824 -.00018724  00000-0 -12911-3 0  9999,2 53604  53.2165 199.9633 0001467 101.5107 354.7302 15.73231548  1302,6727.805,91.531,350.657,348.68300000000005,0.0
53604.0,STARLINK-4690,PAYLOAD,2022-09-15 04:00:00,15.73229231,0.0001472,53.2161,198.7279,94.3148,338.6416,-6.9763e-05,-0.00010411,0.0,0 STARLINK-4690,1 53604U 22104S   22258.16667824 -.00010411  00000-0 -69763-4 0  9990,2 53604  53.2161 198.7279 0001472  94.3148 338.6416 15.73229231  2877,6727.812,91.531,350.667,348.68699999999984,0.0
53604.0,STARLINK-4690,PAYLOAD,2022-09-15 14:00:01,15.7313285,0.0001311,53.2158,196.6645,108.1436,165.9312,0.00027387,0.00037879,0.0,0 STARLINK-4690,1 53604U 22104S   22258.58334491  .00037879  00000-0  27387-3 0  9997,2 53604  53.2158 196.6645 0001311 108.1436 165.9312 15.73132850  1306,6728.087,91.537,350.834,349.07,0.0
53604.0,STARLINK-4690,PAYLOAD,2022-09-15 22:00:00,15.73183728,0.0001405,53.2159,195.0153,112.728,250.2015,0.00048539,0.00068007,0.0,0 STARLINK-4690,1 53604U 22104S   22258.91667824  .00068007  00000-0  48539-3 0  9992,2 53604  53.2159 195.0153 0001405 112.7280 250.2015 15.73183728  1304,6727.941999999999,91.534,350.75199999999984,348.861,0.0
53604.0,STARLINK-4690,PAYLOAD,2022-09-16 00:00:00,15.73161365,0.0001359,53.2158,194.6036,107.6925,7.4199,0.00021966,0.00030268,0.0,0 STARLINK-4690,1 53604U 22104S   22259.00001157  .00030268  00000-0  21966-3 0  9997,2 53604  53.2158 194.6036 0001359 107.6925   7.4199 15.73161365  3002,6728.005,91.535,350.785,348.956,0.0
53604.0,STARLINK-4690,PAYLOAD,2022-09-16 14:00:01,15.73225123,0.0001169,53.2161,191.7164,112.8414,67.8666,-5.646600000000001e-05,-8.545e-05,0.0,0 STARLINK-4690,1 53604U 22104S   22259.58334491 -.00008545  00000-0 -56466-4 0  9999,2 53604  53.2161 191.7164 0001169 112.8414  67.8666 15.73225123  1309,6727.824000000001,91.532,350.475,348.902,0.0
53604.0,STARLINK-4690,PAYLOAD,2022-09-16 22:00:00,15.73227228,0.0001193999999999,53.2159,190.0671,114.3214,155.3257,0.00020563,0.0002836999999999,0.0,0 STARLINK-4690,1 53604U 22104S   22259.91667824  .00028370  00000-0  20563-3 0  9999,2 53604  53.2159 190.0671 0001194 114.3214 155.3257 15.73227228  1301,6727.818,91.532,350.486,348.879,0.0
53604.0,STARLINK-4690,PAYLOAD,2022-09-17 06:00:00,15.73256219,0.0001186,53.2153,188.4192,101.8987,256.7226,-0.0001092,-0.00015953,0.0,0 STARLINK-4690,1 53604U 22104S   22260.25001157 -.00015953  00000-0 -10920-3 0  9990,2 53604  53.2153 188.4192 0001186 101.8987 256.7226 15.73256219  3196,6727.735,91.53,350.398,348.802,0.0
53604.0,STARLINK-4690,PAYLOAD,2022-09-17 14:00:01,15.73226216,0.0001286999999999,53.2152,186.7677,117.3911,330.2254,0.00022806,0.00031543,0.0,0 STARLINK-4690,1 53604U 22104S   22260.58334491  .00031543  00000-0  22806-3 0  9993,2 53604  53.2152 186.7677 0001287 117.3911 330.2254 15.73226216  1309,6727.82,91.532,350.551,348.82,0.0
53604.0,STARLINK-4690,PAYLOAD,2022-09-17 22:00:00,15.73231479,0.0001200999999999,53.2154,185.1184,120.7915,55.799,-2.7211e-05,-4.442e-05,0.0,0 STARLINK-4690,1 53604U 22104S   22260.91667824 -.00004442  00000-0 -27211-4 0  9995,2 53604  53.2154 185.1184 0001201 120.7915  55.7990 15.73231479  1308,6727.805,91.531,350.478,348.862,0.0
53604.0,STARLINK-4690,PAYLOAD,2022-09-18 14:00:01,15.7321714,0.0001294,53.2157,181.8188,117.5591,237.0508,0.00024325,0.0003368,0.0,0 STARLINK-4690,1 53604U 22104S   22261.58335648  .00033680  00000-0  24325-3 0  9991,2 53604  53.2157 181.8188 0001294 117.5591 237.0508 15.73217140  3406,6727.846,91.532,350.582,348.841,0.0
53604.0,STARLINK-4690,PAYLOAD,2022-09-18 22:00:00,15.73229383,0.0001443999999999,53.2157,180.1698,113.5266,329.9808,-9.9278e-06,-2.015e-05,0.0,0 STARLINK-4690,1 53604U 22104S   22261.91667824 -.00002015  00000-0 -99278-5 0  9993,2 53604  53.2157 180.1698 0001444 113.5266 329.9808 15.73229383  1309,6727.811,91.531,350.648,348.705,0.0
53604.0,STARLINK-4690,PAYLOAD,2022-09-19 06:00:02,15.73244552,0.0001379,53.2151,178.5215,107.9939,64.5399,-0.00034976,-0.00049512,0.0,0 STARLINK-4690,1 53604U 22104S   22262.25002315 -.00049512  00000-0 -34976-3 0  9994,2 53604  53.2151 178.5215 0001379 107.9939  64.5399 15.73244552  3517,6727.768,91.531,350.561,348.705,0.0
53604.0,STARLINK-4690,PAYLOAD,2022-09-19 14:00:01,15.73195472,0.0001171999999999,53.2152,176.87,127.2033,134.2423,-0.00014143,-0.00020416,0.0,0 STARLINK-4690,1 53604U 22104S   22262.58334491 -.00020416  00000-0 -14143-3 0  9999,2 53604  53.2152 176.8700 0001172 127.2033 134.2423 15.73195472  1303,6727.908,91.533,350.56199999999984,348.985,0.0
53604.0,STARLINK-4690,PAYLOAD,2022-09-19 22:00:00,15.73236639,0.0001111,53.2155,175.2213,128.0136,222.3502,-0.00041476,-0.00058515,0.0,0 STARLINK-4690,1 53604U 22104S   22262.91667824 -.00058515  00000-0 -41476-3 0  9995,2 53604  53.2155 175.2213 0001111 128.0136 222.3502 15.73236639  1302,6727.791,91.531,350.403,348.908,0.0
53604.0,STARLINK-4690,PAYLOAD,2022-09-20 14:00:01,15.73215763,0.000112,53.2159,171.9215,131.4968,36.7372,-0.000118,-0.00017157,0.0,0 STARLINK-4690,1 53604U 22104S   22263.58334491 -.00017157  00000-0 -11800-3 0  9995,2 53604  53.2159 171.9215 0001120 131.4968  36.7372 15.73215763  3727,6727.85,91.532,350.469,348.962,0.0
53604.0,STARLINK-4690,PAYLOAD,2022-09-20 22:00:01,15.73227266,0.0001105999999999,53.216,170.2731,126.6761,130.5588,-0.00037573,-0.00053079,0.0,0 STARLINK-4690,1 53604U 22104S   22263.91668981 -.00053079  00000-0 -37573-3 0  9994,2 53604  53.2160 170.2731 0001106 126.6761 130.5588 15.73227266  1300,6727.816999999999,91.532,350.427,348.93800000000016,0.0
53604.0,STARLINK-4690,PAYLOAD,2022-09-21 22:00:00,15.73185406,0.0001367,53.2159,165.325,122.8524,41.0201,0.00017961,0.00024645,0.0,0 STARLINK-4690,1 53604U 22104S   22264.91667824  .00024645  00000-0  17961-3 0  9994,2 53604  53.2159 165.3250 0001367 122.8524  41.0201 15.73185406  1300,6727.937,91.534,350.721,348.88199999999995,0.0
53604.0,STARLINK-4690,PAYLOAD,2022-09-22 14:00:01,15.73266446,0.0001278,53.2167,162.0212,121.5225,220.2147,-0.0021587,-0.00294066,0.0,0 STARLINK-4690,1 53604U 22104S   22265.58334491 -.00294066  00000-0 -21587-2 0  9995,2 53604  53.2167 162.0212 0001278 121.5225 220.2147 15.73266446  4033,6727.706,91.529,350.431,348.711,0.0
